0 THORAD AGENA D DEB
1 19948U 70025QD  13281.20996652 -.00000133  00000-0 -34316-3 0  6625
2 19948 099.6101 051.2232 0416998 088.2950 028.5131 12.73306985136300
0 THORAD AGENA D DEB
1 19948U 70025QD  13283.31297867 -.00000112  00000-0 -27086-3 0  6635
2 19948 099.6104 052.9989 0416974 083.7168 308.5174 12.73306825136575
0 THORAD AGENA D DEB
1 19948U 70025QD  13285.59773299 -.00000098  00000-0 -22364-3 0  6643
2 19948 099.6107 054.9281 0416949 078.7448 341.6073 12.73306658136864
0 THORAD AGENA D DEB
1 19948U 70025QD  13288.20296652 -.00000064  00000-0 -10780-3 0  6650
2 19948 099.6110 057.1280 0416918 073.0749 043.7423 12.73306309137199
0 THORAD AGENA D DEB
1 19948U 70025QD  13290.54856749 -.00000044  00000-0 -39390-4 0  6667
2 19948 099.6112 059.1085 0416937 067.9675 355.7488 12.73306386137492
0 THORAD AGENA D DEB
1 19948U 70025QD  13292.59025816 -.00000011  00000-0  72001-4 0  6677
2 19948 099.6113 060.8327 0416920 063.5252 354.6558 12.73306392137758
0 THORAD AGENA D DEB
1 19948U 70025QD  13295.19582416 -.00000002  00000-0  10484-3 0  6687
2 19948 099.6112 063.0332 0416878 057.8554 058.3124 12.73306736138087
